[{"OBJECT_NAME":"LEMUR-2-LIA-MARTIN","OBJECT_ID":"2025-052AQ","EPOCH":"2026-03-09T16:52:54.660288","MEAN_MOTION":14.96805944,"ECCENTRICITY":0.00038171,"INCLINATION":97.6996,"RA_OF_ASC_NODE":322.6614,"ARG_OF_PERICENTER":139.7155,"MEAN_ANOMALY":220.435,"EPHEMERIS_TYPE":0,"CLASSIFICATION_TYPE":"U","NORAD_CAT_ID":63248,"ELEMENT_SET_NO":999,"REV_AT_EPOCH":5379,"BSTAR":0.0006082839,"MEAN_MOTION_DOT":6.911e-5,"MEAN_MOTION_DDOT":0},{"OBJECT_NAME":"STARLINK-34425","OBJECT_ID":"2025-126G","EPOCH":"2026-03-09T23:28:18.414624","MEAN_MOTION":14.98339256,"ECCENTRICITY":0.00025126,"INCLINATION":70.0042,"RA_OF_ASC_NODE":33.7883,"ARG_OF_PERICENTER":265.359,"MEAN_ANOMALY":94.7282,"EPHEMERIS_TYPE":0,"CLASSIFICATION_TYPE":"U","NORAD_CAT_ID":64350,"ELEMENT_SET_NO":999,"REV_AT_EPOCH":4072,"BSTAR":0.00083716103,"MEAN_MOTION_DOT":9.912e-5,"MEAN_MOTION_DDOT":0}]
